{
"type":"FeatureCollection",
"features":[

{
"type":"Feature",
"properties":{
"id":1,
"name":"Taman Sari",
"kategori":"Keraton",
"icon":"🏯",
"deskripsi":"Taman Sari merupakan situs taman kerajaan Kesultanan Yogyakarta.",
"gambar":"https://upload.wikimedia.org/wikipedia/commons/0/0c/Taman_Sari_Yogyakarta.jpg"
},
"geometry":{
"type":"Point",
"coordinates":[110.359,-7.810]
}
},

{
"type":"Feature",
"properties":{
"id":2,
"name":"Benteng Vredeburg",
"kategori":"Kolonial",
"icon":"🏛️",
"deskripsi":"Benteng Vredeburg merupakan peninggalan kolonial Belanda.",
"gambar":"https://upload.wikimedia.org/wikipedia/commons/8/8c/Benteng_Vredeburg_Yogyakarta.jpg"
},
"geometry":{
"type":"Point",
"coordinates":[110.367,-7.801]
}
}

]
}
